#dP2024 10  1 18  0  0.00000000      96 __u+U IGS20 EXT  IAC
## 2334 237600.00000000   900.00000000 60584 0.7500000000000
+   54   G01G02G03G04G05G06G07G08G09G10G11G12G13G14G15G16G17
+        G18G19G20G21G22G23G24G25G26G27G28G29G30G31G32R01R02
+        R03R04R05R07R08R09R11R12R14R15R16R17R18R19R20R21R22
+        R24R25R26  0  0  0  0  0  0  0  0  0  0  0  0  0  0
+          0  0  0  0  0  0  0  0  0  0  0  0  0  0  0  0  0
++         7  8  7  6  7  7  9  8  7  7  6  8  8  8  8  8  8
++         9  8  8  8  8  7  8  8  8  8  8  7  8  8  8  8  7
++         7  8  8  7  8  8  9  9  7  9  9  9  9 10  9  9  8
++         9  8  8  0  0  0  0  0  0  0  0  0  0  0  0  0  0
++         0  0  0  0  0  0  0  0  0  0  0  0  0  0  0  0  0
%c M  cc GPS ccc cccc cccc cccc cccc ccccc ccccc ccccc ccccc
%c cc cc ccc ccc cccc cccc cccc cccc ccccc ccccc ccccc ccccc
%f  0.0000000  0.000000000  0.00000000000  0.000000000000000
%f  0.0000000  0.000000000  0.00000000000  0.000000000000000
%i    0    0    0    0      0      0      0      0         0
%i    0    0    0    0      0      0      0      0         0
/* IAC                                ULTRA-RAPID PREDICTION
/* S/V CLOCKS ARE ALIGNED TO GNSS TIME                      
/* G:C1WC2W R:C1PC2P E:C1XC5X C:C2IC6I J:C1CC2S             
/* PCV:IGS20_2317 OL/AL:FES2004  NONE     YN ORB:CoN CLK:CoN
*  2024 10 02  5 30  0.00000000
PG01      0.000000      0.000000      0.000000    182.541017
PG02  15110.645606  -2573.347618  22171.782846   -345.977157
PG03  22479.669089 -11915.119826   7258.918795    556.999727
PG04  22008.849847  -1838.345742 -14847.006007    454.221955
PG05 -18250.541285  -1428.714071 -19450.058913   -188.461799
PG06  -5080.707173 -25921.525699  -2079.619435     -8.971579
PG07   7702.647880 -19861.038213 -15040.390738    -31.636973
PG08  25836.484212   5796.581392   4002.209100    371.368739
PG09  13566.634617 -10402.767567 -20434.477279    380.870144
PG10  -3490.627175  18680.912135  18621.345367   -144.268431
PG11 -12603.938410 -17705.292892 -15283.079825   -740.381915
PG12 -23183.641734   7749.654399  10048.711563   -542.206202
PG13 -22523.460538 -14195.487652  -2126.915126    679.432043
PG14   7377.294739 -20059.063749  15669.662529    508.374994
PG15 -26160.433288  -2710.879537   3759.647087    210.912145
PG16  15495.589201   7070.388476 -20824.713941   -165.802679
PG17  -2860.723202 -16932.695687  20632.758900    609.101093
PG18  -7276.411657  20646.819243 -14855.946159   -656.283907
PG19 -12384.352054 -18057.471974  15178.119328    545.345769
PG20 -10623.051640 -11073.399230 -21612.139610    370.071505
PG21  16364.406651   4816.531569  20998.919599    100.620491
PG22    202.897940 -17441.186450  20520.594272    -67.305348
PG23 -15049.235235  20153.064466   8197.438033    332.699040
PG24 -15886.878537    228.143066  20874.188978   -485.862947
PG25 -19787.244874  17493.900795   -828.884102    499.604275
PG26   5788.050659  15783.880359 -20654.457962     65.728549
PG27  22504.033982  13173.370351  -6417.407372    -34.255075
PG28   4856.165538  26110.321988    227.851191   -431.608892
PG29 -16250.134153   7339.340950 -19768.644954   -574.112208
PG30    753.025178 -25552.596683  -6521.918917   -310.432538
PG31  11222.608605  20949.995595 -11687.783063   -223.963201
PG32   5796.570057  16932.011540  19906.004236   -591.354265
PR01  12620.628552   9209.253388  20154.828621     99.651463
PR02  24330.937495   3537.745021   6970.625456    -24.950101
PR03  22788.382288  -4845.184314 -10424.040840    108.638994
PR04   8950.801077  -9917.950619 -21711.835735    257.381582
PR05  -9624.764915 -10017.064086 -21382.044773    138.507326
PR07 -22408.969414   5102.778265  11037.874062     92.072451
PR08  -8518.385054  10186.210624  21823.362158     -6.419924
PR09 -11927.413171  -1368.398353  22535.415505    212.331037
PR11 -11864.528059  22538.065846  -1554.631760     10.336715
PR12    313.391404  17419.618251 -18600.112851     45.517499
PR14  15788.070446 -14717.862504 -13563.312233     26.999943
PR15  11134.047984 -22701.912038   3356.618331     75.284730
PR16   -177.543621 -17459.209653  18591.484133     29.597048
PR17   9955.418702  -3972.745944  23157.433075    127.066737
PR18   -313.847942 -17769.145976  18300.384292    164.870241
PR19  -8879.619073 -23190.889197   5869.945125   -293.400045
PR20 -14800.400662 -14535.490562 -14810.882339   -119.888704
PR21 -10360.522568   2969.884682 -23116.385468   -139.289442
PR22    483.607590  18706.548059 -17307.509493     32.413273
PR24  15731.424700  13227.293076  15110.169986    -74.344884
PR25 -10213.349335   4036.533735 -23015.162837    -95.778524
PR26 -10202.517916   9936.757745  21180.244749     54.430901
*  2024 10 02  5 45  0.00000000
PG01      0.000000      0.000000      0.000000    182.531940
PG02  15760.198682   -246.639950  21888.650949   -345.969883
PG03  21834.010589 -11123.865756   9940.099806    557.010878
PG04  23407.645800  -1107.411096 -12628.250275    454.228125
PG05 -16681.026802  -3046.961065 -20641.949505   -188.462995
PG06  -4917.020667 -26030.094983    838.339369     -8.995845
PG07   8293.134351 -18002.101149 -16926.866323    -31.633501
PG08  26058.017297   6124.268575   1212.342944    371.379619
PG09  15682.680182  -9624.771049 -19267.999186    380.884797
PG10  -5082.568848  19895.471104  16866.162400   -144.280122
PG11 -12661.487944 -19340.097442 -13110.020122   -740.385140
PG12 -22258.256844   6768.377938  12489.946593   -542.208711
PG13 -22096.929021 -14201.926270  -4953.350188    679.433641
PG14   8817.757610 -20952.800576  13593.388943    508.382557
PG15 -26427.325399  -3077.423626    980.098170    210.916107
PG16  13623.087244   8485.963344 -21564.302722   -165.793563
PG17   -683.714979 -16109.254195  21494.601533    609.090027
PG18  -7748.879875  18878.185022 -16853.398528   -656.285508
PG19 -10643.556127 -17401.216634  17086.196083    545.350001
PG20  -9055.642339 -12981.997374 -21275.232425    370.071145
PG21  16952.710439   6976.362235  19971.372441    100.619778
PG22   2030.736102 -18653.909453  19320.919834    -67.308545
PG23 -15761.383230  20529.755608   5431.685924    332.706431
PG24 -16534.632044  -2138.061099  20304.087783   -485.862237
PG25 -19915.532402  17194.466237   2019.179922    499.604229
PG26   4097.201181  17345.129148 -19746.483161     65.720396
PG27  21641.971097  13100.988853  -9063.297147    -34.255423
PG28   4568.239426  25980.118764   3077.797643   -431.620916
PG29 -18197.381376   6381.071687 -18362.323911   -574.109861
PG30   1249.149913 -24707.294623  -9144.246887   -310.425992
PG31  11164.167061  22152.724741  -9176.796646   -223.962832
PG32   3601.849400  16281.280071  20933.368796   -591.350639
PR01  10048.780169   9302.704570  21512.569632     99.652450
PR02  23289.412206   3393.984563   9965.220164    -24.950302
PR03  23891.080625  -5033.236659  -7460.972087    108.639446
PR04  11552.717437 -10045.582476 -20387.318627    257.383299
PR05  -6918.537206 -10008.215870 -22410.578404    138.507839
PR07 -23582.418745   5283.955537   8105.614774     92.073139
PR08 -11119.142667  10328.091543  20542.597983     -6.419957
PR09 -10682.507455  -3868.666807  22860.294422    212.332918
PR11 -11730.953463  22602.366540   1655.965323     10.335784
PR12   -627.602907  19380.720062 -16540.134212     45.517878
PR14  14869.690101 -13136.086054 -16004.954920     26.999973
PR15  11120.275204 -22951.923072    161.785644     75.284350
PR16    740.315095 -19422.853547  16509.265770     29.597148
PR17  11450.555388  -1567.401439  22746.083497    127.069745
PR18    798.750907 -15672.981533  20115.939175    164.871892
PR19  -8620.150677 -22289.281956   8944.679614   -293.401284
PR20 -15760.056087 -15914.368145 -12167.775040   -119.889181
PR21 -11839.812360    564.185434 -22587.057961   -139.292339
PR22   -548.312109  16691.778116 -19252.881655     32.404032
PR24  16723.928984  14617.164006  12539.411737    -74.346307
PR25 -11606.603128   1585.002559 -22653.749775    -95.775600
PR26 -12717.010505  10104.846670  19688.039028     54.451551
EOF
